[{"OBJECT_NAME":"STARLINK-11575 [DTC]","OBJECT_ID":"2025-057B","EPOCH":"2025-12-23T04:15:07.966656","MEAN_MOTION":15.70863921,"ECCENTRICITY":0.00015546,"INCLINATION":42.9998,"RA_OF_ASC_NODE":5.7735,"ARG_OF_PERICENTER":263.9536,"MEAN_ANOMALY":96.1154,"EPHEMERIS_TYPE":0,"CLASSIFICATION_TYPE":"U","NORAD_CAT_ID":63308,"ELEMENT_SET_NO":999,"REV_AT_EPOCH":4514,"BSTAR":0.0017647372,"MEAN_MOTION_DOT":0.00232678,"MEAN_MOTION_DDOT":0},{"OBJECT_NAME":"STARLINK-11585 [DTC]","OBJECT_ID":"2025-057C","EPOCH":"2025-12-23T02:20:38.028768","MEAN_MOTION":15.71041004,"ECCENTRICITY":0.00019494,"INCLINATION":42.999,"RA_OF_ASC_NODE":6.0272,"ARG_OF_PERICENTER":236.6538,"MEAN_ANOMALY":123.4143,"EPHEMERIS_TYPE":0,"CLASSIFICATION_TYPE":"U","NORAD_CAT_ID":63309,"ELEMENT_SET_NO":999,"REV_AT_EPOCH":4516,"BSTAR":0.0027110211,"MEAN_MOTION_DOT":0.00366263,"MEAN_MOTION_DDOT":0},{"OBJECT_NAME":"STARLINK-11587 [DTC]","OBJECT_ID":"2025-057D","EPOCH":"2025-12-23T01:42:35.906688","MEAN_MOTION":15.709803,"ECCENTRICITY":0.0001409,"INCLINATION":43.0005,"RA_OF_ASC_NODE":6.7101,"ARG_OF_PERICENTER":261.0645,"MEAN_ANOMALY":99.0063,"EPHEMERIS_TYPE":0,"CLASSIFICATION_TYPE":"U","NORAD_CAT_ID":63310,"ELEMENT_SET_NO":999,"REV_AT_EPOCH":4512,"BSTAR":0.0028330386,"MEAN_MOTION_DOT":0.0038256,"MEAN_MOTION_DDOT":0},{"OBJECT_NAME":"STARLINK-11589 [DTC]","OBJECT_ID":"2025-057E","EPOCH":"2025-12-23T01:50:14.453088","MEAN_MOTION":15.70927815,"ECCENTRICITY":0.00010787,"INCLINATION":42.9994,"RA_OF_ASC_NODE":6.7521,"ARG_OF_PERICENTER":233.3277,"MEAN_ANOMALY":126.7491,"EPHEMERIS_TYPE":0,"CLASSIFICATION_TYPE":"U","NORAD_CAT_ID":63311,"ELEMENT_SET_NO":999,"REV_AT_EPOCH":4512,"BSTAR":0.0015129616,"MEAN_MOTION_DOT":0.0019914,"MEAN_MOTION_DDOT":0},{"OBJECT_NAME":"STARLINK-11650 [DTC]","OBJECT_ID":"2025-057F","EPOCH":"2025-12-23T01:28:36.942816","MEAN_MOTION":15.70929139,"ECCENTRICITY":0.00012608,"INCLINATION":42.9984,"RA_OF_ASC_NODE":6.6306,"ARG_OF_PERICENTER":222.4478,"MEAN_ANOMALY":137.6292,"EPHEMERIS_TYPE":0,"CLASSIFICATION_TYPE":"U","NORAD_CAT_ID":63312,"ELEMENT_SET_NO":999,"REV_AT_EPOCH":4515,"BSTAR":0.0015461342,"MEAN_MOTION_DOT":0.00203638,"MEAN_MOTION_DDOT":0},{"OBJECT_NAME":"STARLINK-11648 [DTC]","OBJECT_ID":"2025-057G","EPOCH":"2025-12-23T01:27:19.230336","MEAN_MOTION":15.70921561,"ECCENTRICITY":5.151e-5,"INCLINATION":42.9993,"RA_OF_ASC_NODE":6.6221,"ARG_OF_PERICENTER":189.3314,"MEAN_ANOMALY":170.7545,"EPHEMERIS_TYPE":0,"CLASSIFICATION_TYPE":"U","NORAD_CAT_ID":63313,"ELEMENT_SET_NO":999,"REV_AT_EPOCH":4512,"BSTAR":0.001723999,"MEAN_MOTION_DOT":0.00227714,"MEAN_MOTION_DDOT":0},{"OBJECT_NAME":"STARLINK-11640 [DTC]","OBJECT_ID":"2025-057H","EPOCH":"2025-12-23T04:22:46.590816","MEAN_MOTION":15.70866967,"ECCENTRICITY":0.00014786,"INCLINATION":43,"RA_OF_ASC_NODE":5.8135,"ARG_OF_PERICENTER":258.5726,"MEAN_ANOMALY":101.4976,"EPHEMERIS_TYPE":0,"CLASSIFICATION_TYPE":"U","NORAD_CAT_ID":63314,"ELEMENT_SET_NO":999,"REV_AT_EPOCH":4514,"BSTAR":0.0017850603,"MEAN_MOTION_DOT":0.00235472,"MEAN_MOTION_DDOT":0},{"OBJECT_NAME":"STARLINK-11652 [DTC]","OBJECT_ID":"2025-057J","EPOCH":"2025-12-22T09:48:45.345024","MEAN_MOTION":15.70923019,"ECCENTRICITY":0.00013694,"INCLINATION":43.0008,"RA_OF_ASC_NODE":10.3259,"ARG_OF_PERICENTER":277.9131,"MEAN_ANOMALY":82.1581,"EPHEMERIS_TYPE":0,"CLASSIFICATION_TYPE":"U","NORAD_CAT_ID":63315,"ELEMENT_SET_NO":999,"REV_AT_EPOCH":4505,"BSTAR":0.0018022334,"MEAN_MOTION_DOT":0.00238387,"MEAN_MOTION_DDOT":0},{"OBJECT_NAME":"STARLINK-11645 [DTC]","OBJECT_ID":"2025-057K","EPOCH":"2025-12-23T01:34:56.960256","MEAN_MOTION":15.70977483,"ECCENTRICITY":0.00020389,"INCLINATION":42.999,"RA_OF_ASC_NODE":6.6638,"ARG_OF_PERICENTER":238.7714,"MEAN_ANOMALY":121.2954,"EPHEMERIS_TYPE":0,"CLASSIFICATION_TYPE":"U","NORAD_CAT_ID":63316,"ELEMENT_SET_NO":999,"REV_AT_EPOCH":4515,"BSTAR":0.0028057328,"MEAN_MOTION_DOT":0.00378636,"MEAN_MOTION_DDOT":0},{"OBJECT_NAME":"STARLINK-11633 [DTC]","OBJECT_ID":"2025-057L","EPOCH":"2025-12-23T01:57:42.076800","MEAN_MOTION":15.70843899,"ECCENTRICITY":7.614e-5,"INCLINATION":42.9972,"RA_OF_ASC_NODE":5.8961,"ARG_OF_PERICENTER":259.2077,"MEAN_ANOMALY":100.8705,"EPHEMERIS_TYPE":0,"CLASSIFICATION_TYPE":"U","NORAD_CAT_ID":63317,"ELEMENT_SET_NO":999,"REV_AT_EPOCH":4513,"BSTAR":0.0015455564,"MEAN_MOTION_DOT":0.00202816,"MEAN_MOTION_DDOT":0},{"OBJECT_NAME":"STARLINK-11593 [DTC]","OBJECT_ID":"2025-057M","EPOCH":"2025-12-23T00:41:26.013120","MEAN_MOTION":15.70959157,"ECCENTRICITY":7.301e-5,"INCLINATION":42.9976,"RA_OF_ASC_NODE":6.3644,"ARG_OF_PERICENTER":215.2746,"MEAN_ANOMALY":144.8074,"EPHEMERIS_TYPE":0,"CLASSIFICATION_TYPE":"U","NORAD_CAT_ID":63318,"ELEMENT_SET_NO":999,"REV_AT_EPOCH":4515,"BSTAR":0.0019893952,"MEAN_MOTION_DOT":0.00264433,"MEAN_MOTION_DDOT":0},{"OBJECT_NAME":"STARLINK-11588 [DTC]","OBJECT_ID":"2025-057N","EPOCH":"2025-12-23T03:59:50.428896","MEAN_MOTION":15.70971825,"ECCENTRICITY":9.64e-5,"INCLINATION":42.9946,"RA_OF_ASC_NODE":5.6832,"ARG_OF_PERICENTER":89.7589,"MEAN_ANOMALY":270.3389,"EPHEMERIS_TYPE":0,"CLASSIFICATION_TYPE":"U","NORAD_CAT_ID":63319,"ELEMENT_SET_NO":999,"REV_AT_EPOCH":4514,"BSTAR":0.0014571863,"MEAN_MOTION_DOT":0.00191971,"MEAN_MOTION_DDOT":0},{"OBJECT_NAME":"STARLINK-33671","OBJECT_ID":"2025-057P","EPOCH":"2025-12-22T16:27:33.080256","MEAN_MOTION":15.27626684,"ECCENTRICITY":0.00024076,"INCLINATION":43.0034,"RA_OF_ASC_NODE":95.0925,"ARG_OF_PERICENTER":271.623,"MEAN_ANOMALY":88.4346,"EPHEMERIS_TYPE":0,"CLASSIFICATION_TYPE":"U","NORAD_CAT_ID":63320,"ELEMENT_SET_NO":999,"REV_AT_EPOCH":4412,"BSTAR":0.0008662373,"MEAN_MOTION_DOT":0.00023686,"MEAN_MOTION_DDOT":0},{"OBJECT_NAME":"STARLINK-33650","OBJECT_ID":"2025-057Q","EPOCH":"2025-12-23T06:38:25.853568","MEAN_MOTION":15.27594756,"ECCENTRICITY":0.00035754,"INCLINATION":42.9981,"RA_OF_ASC_NODE":102.176,"ARG_OF_PERICENTER":304.4379,"MEAN_ANOMALY":55.6135,"EPHEMERIS_TYPE":0,"CLASSIFICATION_TYPE":"U","NORAD_CAT_ID":63321,"ELEMENT_SET_NO":999,"REV_AT_EPOCH":4405,"BSTAR":0.0008237287,"MEAN_MOTION_DOT":0.00022487,"MEAN_MOTION_DDOT":0},{"OBJECT_NAME":"STARLINK-33689","OBJECT_ID":"2025-057R","EPOCH":"2025-12-23T00:10:41.756736","MEAN_MOTION":15.27565836,"ECCENTRICITY":0.00011602,"INCLINATION":42.9994,"RA_OF_ASC_NODE":103.5871,"ARG_OF_PERICENTER":270.1623,"MEAN_ANOMALY":89.9096,"EPHEMERIS_TYPE":0,"CLASSIFICATION_TYPE":"U","NORAD_CAT_ID":63322,"ELEMENT_SET_NO":999,"REV_AT_EPOCH":4405,"BSTAR":0.00080758557,"MEAN_MOTION_DOT":0.00022018,"MEAN_MOTION_DDOT":0},{"OBJECT_NAME":"STARLINK-33607","OBJECT_ID":"2025-057S","EPOCH":"2025-12-22T16:51:21.477024","MEAN_MOTION":15.27626464,"ECCENTRICITY":0.00026125,"INCLINATION":43.0027,"RA_OF_ASC_NODE":105.6024,"ARG_OF_PERICENTER":267.1667,"MEAN_ANOMALY":92.8885,"EPHEMERIS_TYPE":0,"CLASSIFICATION_TYPE":"U","NORAD_CAT_ID":63323,"ELEMENT_SET_NO":999,"REV_AT_EPOCH":4396,"BSTAR":0.0012987022,"MEAN_MOTION_DOT":0.00035701,"MEAN_MOTION_DDOT":0}]
