STARLINK-11575 [DTC]    
1 63308U 25057B   25357.17717554  .00232678  00000+0  17647-2 0  9992
2 63308  42.9998   5.7735 0001554 263.9536  96.1154 15.70863921 45141
STARLINK-11585 [DTC]    
1 63309U 25057C   25357.09766237  .00366263  00000+0  27110-2 0  9990
2 63309  42.9990   6.0272 0001949 236.6538 123.4143 15.71041004 45166
STARLINK-11587 [DTC]    
1 63310U 25057D   25357.07124892  .00382560  00000+0  28330-2 0  9998
2 63310  43.0005   6.7101 0001409 261.0645  99.0063 15.70980300 45122
STARLINK-11589 [DTC]    
1 63311U 25057E   25357.07655617  .00199140  00000+0  15130-2 0  9997
2 63311  42.9994   6.7521 0001078 233.3277 126.7491 15.70927815 45124
STARLINK-11650 [DTC]    
1 63312U 25057F   25357.06153869  .00203638  00000+0  15461-2 0  9994
2 63312  42.9984   6.6306 0001260 222.4478 137.6292 15.70929139 45153
STARLINK-11648 [DTC]    
1 63313U 25057G   25357.06063924  .00227714  00000+0  17240-2 0  9995
2 63313  42.9993   6.6221 0000515 189.3314 170.7545 15.70921561 45129
STARLINK-11640 [DTC]    
1 63314U 25057H   25357.18248369  .00235472  00000+0  17851-2 0  9995
2 63314  43.0000   5.8135 0001478 258.5726 101.4976 15.70866967 45140
STARLINK-11652 [DTC]    
1 63315U 25057J   25356.40885816  .00238387  00000+0  18022-2 0  9993
2 63315  43.0008  10.3259 0001369 277.9131  82.1581 15.70923019 45050
STARLINK-11645 [DTC]    
1 63316U 25057K   25357.06593704  .00378636  00000+0  28057-2 0  9990
2 63316  42.9990   6.6638 0002038 238.7714 121.2954 15.70977483 45158
STARLINK-11633 [DTC]    
1 63317U 25057L   25357.08173700  .00202816  00000+0  15456-2 0  9998
2 63317  42.9972   5.8961 0000761 259.2077 100.8705 15.70843899 45138
STARLINK-11593 [DTC]    
1 63318U 25057M   25357.02877330  .00264433  00000+0  19894-2 0  9996
2 63318  42.9976   6.3644 0000730 215.2746 144.8074 15.70959157 45152
STARLINK-11588 [DTC]    
1 63319U 25057N   25357.16655589  .00191971  00000+0  14572-2 0  9996
2 63319  42.9946   5.6832 0000964  89.7589 270.3389 15.70971825 45148
STARLINK-33671          
1 63320U 25057P   25356.68579954  .00023686  00000+0  86624-3 0  9990
2 63320  43.0034  95.0925 0002407 271.6230  88.4346 15.27626684 44125
STARLINK-33650          
1 63321U 25057Q   25357.27668812  .00022487  00000+0  82373-3 0  9994
2 63321  42.9981 102.1760 0003575 304.4379  55.6135 15.27594756 44056
STARLINK-33689          
1 63322U 25057R   25357.00742774  .00022018  00000+0  80759-3 0  9992
2 63322  42.9994 103.5871 0001160 270.1623  89.9096 15.27565836 44051
STARLINK-33607          
1 63323U 25057S   25356.70233191  .00035701  00000+0  12987-2 0  9997
2 63323  43.0027 105.6024 0002612 267.1667  92.8885 15.27626464 43964
